{"type": "FeatureCollection", "features": [{"type": "Feature", "properties": {"norad_id": 2807, "name": "OPS 7218 (TRANSIT 16)", "group": "nnss", "lat": -33.70145610745358, "lon": 174.54487882068815, "alt_km": 1071.4625044267896, "timestamp": "2025-12-03T08:58:46.269711+00:00", "meta": {"OBJECT_NAME": "OPS 7218 (TRANSIT 16)", "OBJECT_ID": "1967-048A", "EPOCH": "2025-12-03T02:55:26.054976", "MEAN_MOTION": 13.50719362, "ECCENTRICITY": 0.0021451, "INCLINATION": 89.6735, "RA_OF_ASC_NODE": 354.3353, "ARG_OF_PERICENTER": 140.0023, "MEAN_ANOMALY": 287.1767, "EPHEMERIS_TYPE": 0, "CLASSIFICATION_TYPE": "U", "NORAD_CAT_ID": 2807, "ELEMENT_SET_NO": 999, "REV_AT_EPOCH": 88146, "BSTAR": 0.00021375, "MEAN_MOTION_DOT": 1.48e-06, "MEAN_MOTION_DDOT": 0}, "tle": {"line1": "1 02807U 67048A   25337.12182934  .00000148  00000+0  21375-3 0  9995", "line2": "2 02807  89.6735 354.3353 0021451 140.0023 287.1767 13.50719362881468"}}, "geometry": {"type": "Point", "coordinates": [174.54487882068815, -33.70145610745358]}}, {"type": "Feature", "properties": {"norad_id": 2965, "name": "OPS 4947 (TRANSIT 17)", "group": "nnss", "lat": -5.4906600508397485, "lon": -154.77835258102974, "alt_km": 1055.6146445796985, "timestamp": "2025-12-03T08:58:46.269738+00:00", "meta": {"OBJECT_NAME": "OPS 4947 (TRANSIT 17)", "OBJECT_ID": "1967-092A", "EPOCH": "2025-12-03T02:59:56.707296", "MEAN_MOTION": 13.53449887, "ECCENTRICITY": 0.0045767, "INCLINATION": 89.2506, "RA_OF_ASC_NODE": 25.1685, "ARG_OF_PERICENTER": 263.4145, "MEAN_ANOMALY": 149.0633, "EPHEMERIS_TYPE": 0, "CLASSIFICATION_TYPE": "U", "NORAD_CAT_ID": 2965, "ELEMENT_SET_NO": 999, "REV_AT_EPOCH": 86967, "BSTAR": 0.00022955, "MEAN_MOTION_DOT": 1.66e-06, "MEAN_MOTION_DDOT": 0}, "tle": {"line1": "1 02965U 67092A   25337.12496189  .00000166  00000+0  22955-3 0  9994", "line2": "2 02965  89.2506  25.1685 0045767 263.4145 149.0633 13.53449887869679"}}, "geometry": {"type": "Point", "coordinates": [-154.77835258102974, -5.4906600508397485]}}, {"type": "Feature", "properties": {"norad_id": 3133, "name": "OPS 7034 (TRANSIT 18)", "group": "nnss", "lat": 38.25882971654719, "lon": -86.40842875821465, "alt_km": 1114.0256762541867, "timestamp": "2025-12-03T08:58:46.269754+00:00", "meta": {"OBJECT_NAME": "OPS 7034 (TRANSIT 18)", "OBJECT_ID": "1968-012A", "EPOCH": "2025-12-02T20:38:59.970048", "MEAN_MOTION": 13.51562273, "ECCENTRICITY": 0.0072931, "INCLINATION": 90.0269, "RA_OF_ASC_NODE": 273.6114, "ARG_OF_PERICENTER": 197.8968, "MEAN_ANOMALY": 222.6307, "EPHEMERIS_TYPE": 0, "CLASSIFICATION_TYPE": "U", "NORAD_CAT_ID": 3133, "ELEMENT_SET_NO": 999, "REV_AT_EPOCH": 56785, "BSTAR": 0.00016115, "MEAN_MOTION_DOT": 1.16e-06, "MEAN_MOTION_DDOT": 0}, "tle": {"line1": "1 03133U 68012A   25336.86041632  .00000116  00000+0  16115-3 0  9990", "line2": "2 03133  90.0269 273.6114 0072931 197.8968 222.6307 13.51562273567850"}}, "geometry": {"type": "Point", "coordinates": [-86.40842875821465, 38.25882971654719]}}, {"type": "Feature", "properties": {"norad_id": 4507, "name": "NNSS 19 (TRANSIT 19)", "group": "nnss", "lat": 20.15423051880534, "lon": -125.47486294578066, "alt_km": 1001.235586055891, "timestamp": "2025-12-03T08:58:46.269768+00:00", "meta": {"OBJECT_NAME": "NNSS 19 (TRANSIT 19)", "OBJECT_ID": "1970-067A", "EPOCH": "2025-12-03T03:33:03.750048", "MEAN_MOTION": 13.51311011, "ECCENTRICITY": 0.01712, "INCLINATION": 90.0057, "RA_OF_ASC_NODE": 234.5271, "ARG_OF_PERICENTER": 321.3707, "MEAN_ANOMALY": 37.5297, "EPHEMERIS_TYPE": 0, "CLASSIFICATION_TYPE": "U", "NORAD_CAT_ID": 4507, "ELEMENT_SET_NO": 999, "REV_AT_EPOCH": 72092, "BSTAR": 0.00026299, "MEAN_MOTION_DOT": 1.95e-06, "MEAN_MOTION_DDOT": 0}, "tle": {"line1": "1 04507U 70067A   25337.14796007  .00000195  00000+0  26299-3 0  9995", "line2": "2 04507  90.0057 234.5271 0171200 321.3707  37.5297 13.51311011720927"}}, "geometry": {"type": "Point", "coordinates": [-125.47486294578066, 20.15423051880534]}}, {"type": "Feature", "properties": {"norad_id": 6909, "name": "NNSS 20 (TRANSIT 20)", "group": "nnss", "lat": 45.17753852643078, "lon": 75.04920031197202, "alt_km": 889.0173922726781, "timestamp": "2025-12-03T08:58:46.269781+00:00", "meta": {"OBJECT_NAME": "NNSS 20 (TRANSIT 20)", "OBJECT_ID": "1973-081A", "EPOCH": "2025-12-03T01:19:58.549728", "MEAN_MOTION": 13.71427459, "ECCENTRICITY": 0.0156467, "INCLINATION": 89.8556, "RA_OF_ASC_NODE": 255.1994, "ARG_OF_PERICENTER": 106.995, "MEAN_ANOMALY": 254.8426, "EPHEMERIS_TYPE": 0, "CLASSIFICATION_TYPE": "U", "NORAD_CAT_ID": 6909, "ELEMENT_SET_NO": 999, "REV_AT_EPOCH": 80228, "BSTAR": 0.00026591, "MEAN_MOTION_DOT": 2.73e-06, "MEAN_MOTION_DDOT": 0}, "tle": {"line1": "1 06909U 73081A   25337.05553877  .00000273  00000+0  26591-3 0  9990", "line2": "2 06909  89.8556 255.1994 0156467 106.9950 254.8426 13.71427459802285"}}, "geometry": {"type": "Point", "coordinates": [75.04920031197202, 45.17753852643078]}}, {"type": "Feature", "properties": {"norad_id": 10457, "name": "TRANSAT", "group": "nnss", "lat": 76.86184873677267, "lon": -102.57978476984638, "alt_km": 1076.4388416519705, "timestamp": "2025-12-03T08:58:46.269793+00:00", "meta": {"OBJECT_NAME": "TRANSAT", "OBJECT_ID": "1977-106A", "EPOCH": "2025-12-03T02:13:06.270816", "MEAN_MOTION": 13.48941152, "ECCENTRICITY": 0.0024524, "INCLINATION": 89.6482, "RA_OF_ASC_NODE": 78.9385, "ARG_OF_PERICENTER": 217.968, "MEAN_ANOMALY": 318.1603, "EPHEMERIS_TYPE": 0, "CLASSIFICATION_TYPE": "U", "NORAD_CAT_ID": 10457, "ELEMENT_SET_NO": 999, "REV_AT_EPOCH": 36613, "BSTAR": 0.00013441, "MEAN_MOTION_DOT": 9.4e-07, "MEAN_MOTION_DDOT": 0}, "tle": {"line1": "1 10457U 77106A   25337.09243369  .00000094  00000+0  13441-3 0  9992", "line2": "2 10457  89.6482  78.9385 0024524 217.9680 318.1603 13.48941152366135"}}, "geometry": {"type": "Point", "coordinates": [-102.57978476984638, 76.86184873677267]}}, {"type": "Feature", "properties": {"norad_id": 12458, "name": "NOVA 1", "group": "nnss", "lat": 30.804981570875928, "lon": -88.57060151527524, "alt_km": 1159.6378065723093, "timestamp": "2025-12-03T08:58:46.269805+00:00", "meta": {"OBJECT_NAME": "NOVA 1", "OBJECT_ID": "1981-044A", "EPOCH": "2025-12-03T01:50:46.540320", "MEAN_MOTION": 13.2327678, "ECCENTRICITY": 0.0015596, "INCLINATION": 89.8522, "RA_OF_ASC_NODE": 91.5218, "ARG_OF_PERICENTER": 127.7764, "MEAN_ANOMALY": 46.1872, "EPHEMERIS_TYPE": 0, "CLASSIFICATION_TYPE": "U", "NORAD_CAT_ID": 12458, "ELEMENT_SET_NO": 999, "REV_AT_EPOCH": 15058, "BSTAR": 0.00014865, "MEAN_MOTION_DOT": 7.2e-07, "MEAN_MOTION_DDOT": 0}, "tle": {"line1": "1 12458U 81044A   25337.07692755  .00000072  00000+0  14865-3 0  9993", "line2": "2 12458  89.8522  91.5218 0015596 127.7764  46.1872 13.23276780150588"}}, "geometry": {"type": "Point", "coordinates": [-88.57060151527524, 30.804981570875928]}}, {"type": "Feature", "properties": {"norad_id": 15362, "name": "NOVA 3", "group": "nnss", "lat": 29.69219111670674, "lon": 80.35441105574768, "alt_km": 1151.4430176423712, "timestamp": "2025-12-03T08:58:46.269816+00:00", "meta": {"OBJECT_NAME": "NOVA 3", "OBJECT_ID": "1984-110A", "EPOCH": "2025-12-02T20:45:05.345280", "MEAN_MOTION": 13.2304265, "ECCENTRICITY": 0.0031294, "INCLINATION": 90.1225, "RA_OF_ASC_NODE": 80.4183, "ARG_OF_PERICENTER": 359.6853, "MEAN_ANOMALY": 124.5872, "EPHEMERIS_TYPE": 0, "CLASSIFICATION_TYPE": "U", "NORAD_CAT_ID": 15362, "ELEMENT_SET_NO": 999, "REV_AT_EPOCH": 98568, "BSTAR": 9.685e-05, "MEAN_MOTION_DOT": 4.9e-07, "MEAN_MOTION_DDOT": 0}, "tle": {"line1": "1 15362U 84110A   25336.86464520  .00000049  00000+0  96850-4 0  9999", "line2": "2 15362  90.1225  80.4183 0031294 359.6853 124.5872 13.23042650985681"}}, "geometry": {"type": "Point", "coordinates": [80.35441105574768, 29.69219111670674]}}, {"type": "Feature", "properties": {"norad_id": 15935, "name": "OSCAR 30", "group": "nnss", "lat": 29.5441954103416, "lon": 99.60073157213915, "alt_km": 1099.18615140152, "timestamp": "2025-12-03T08:58:46.269827+00:00", "meta": {"OBJECT_NAME": "OSCAR 30", "OBJECT_ID": "1985-066A", "EPOCH": "2025-12-03T02:29:29.514912", "MEAN_MOTION": 13.36075851, "ECCENTRICITY": 0.0169334, "INCLINATION": 90.1646, "RA_OF_ASC_NODE": 99.6897, "ARG_OF_PERICENTER": 110.8002, "MEAN_ANOMALY": 61.2446, "EPHEMERIS_TYPE": 0, "CLASSIFICATION_TYPE": "U", "NORAD_CAT_ID": 15935, "ELEMENT_SET_NO": 999, "REV_AT_EPOCH": 96324, "BSTAR": 0.00022932, "MEAN_MOTION_DOT": 1.38e-06, "MEAN_MOTION_DDOT": 0}, "tle": {"line1": "1 15935U 85066A   25337.10381383  .00000138  00000+0  22932-3 0  9997", "line2": "2 15935  90.1646  99.6897 0169334 110.8002  61.2446 13.36075851963243"}}, "geometry": {"type": "Point", "coordinates": [99.60073157213915, 29.5441954103416]}}, {"type": "Feature", "properties": {"norad_id": 15936, "name": "OSCAR 24", "group": "nnss", "lat": 68.44423699743835, "lon": -87.40786921853042, "alt_km": 990.5217373021596, "timestamp": "2025-12-03T08:58:46.269838+00:00", "meta": {"OBJECT_NAME": "OSCAR 24", "OBJECT_ID": "1985-066B", "EPOCH": "2025-12-03T02:05:18.076128", "MEAN_MOTION": 13.35933438, "ECCENTRICITY": 0.0170368, "INCLINATION": 90.1786, "RA_OF_ASC_NODE": 92.1347, "ARG_OF_PERICENTER": 117.2859, "MEAN_ANOMALY": 54.287, "EPHEMERIS_TYPE": 0, "CLASSIFICATION_TYPE": "U", "NORAD_CAT_ID": 15936, "ELEMENT_SET_NO": 999, "REV_AT_EPOCH": 96514, "BSTAR": 0.0001492, "MEAN_MOTION_DOT": 9.3e-07, "MEAN_MOTION_DDOT": 0}, "tle": {"line1": "1 15936U 85066B   25337.08701477  .00000093  00000+0  14920-3 0  9993", "line2": "2 15936  90.1786  92.1347 0170368 117.2859  54.2870 13.35933438965144"}}, "geometry": {"type": "Point", "coordinates": [-87.40786921853042, 68.44423699743835]}}]}